IRIDIUM 136             
1 42962U 17061H   24286.47664934  .00000275  00000+0  91008-4 0  9998
2 42962  86.3909 281.2779 0002208  93.5483 266.5966 14.34216935367015
